[{"OBJECT_NAME":"YAOGAN-40 03A","OBJECT_ID":"2025-199A","EPOCH":"2026-03-09T23:03:31.278816","MEAN_MOTION":14.26419606,"ECCENTRICITY":0.00148498,"INCLINATION":85.9829,"RA_OF_ASC_NODE":86.7514,"ARG_OF_PERICENTER":35.6299,"MEAN_ANOMALY":324.588,"EPHEMERIS_TYPE":0,"CLASSIFICATION_TYPE":"U","NORAD_CAT_ID":65544,"ELEMENT_SET_NO":999,"REV_AT_EPOCH":2627,"BSTAR":0.00017546994,"MEAN_MOTION_DOT":4.42e-6,"MEAN_MOTION_DDOT":0},{"OBJECT_NAME":"COSMOS 1275 DEB","OBJECT_ID":"1981-053NM","EPOCH":"2026-03-06T07:33:07.765344","MEAN_MOTION":14.19425682,"ECCENTRICITY":0.00556696,"INCLINATION":82.8205,"RA_OF_ASC_NODE":279.9234,"ARG_OF_PERICENTER":140.1098,"MEAN_ANOMALY":220.4194,"EPHEMERIS_TYPE":0,"CLASSIFICATION_TYPE":"U","NORAD_CAT_ID":39951,"ELEMENT_SET_NO":999,"REV_AT_EPOCH":60256,"BSTAR":0.0021854657,"MEAN_MOTION_DOT":4.685e-5,"MEAN_MOTION_DDOT":0}]
